ONEWEB-0179
1 48212U 21031C   24155.14667969  .00000118  00000+0  28328-3 0  9994
2 48212  87.8969  77.7185 0001975  75.6757 284.4592 13.14501848150588
ONEWEB-0183
1 48219U 21031K   24155.52091703 -.00000051  00000+0 -17119-3 0  9994
2 48219  87.8968  77.6782 0001926  76.5144 283.6201 13.14501429150620
ONEWEB-0186
1 48229U 21031V   24155.21803935  .00000069  00000+0  15215-3 0  9991
2 48229  87.8969  77.6978 0002045  77.9475 282.1883 13.14502297150651
ONEWEB-0349
1 49281U 21090C   24155.22031706  .00000172  00000+0  39099-3 0  9996
2 49281  87.9222  62.4700 0001834  71.6295 288.5038 13.20769959132912
ONEWEB-0356
1 49283U 21090E   24155.21873500  .00000126  00000+0  27836-3 0  9998
2 49283  87.9221  62.4650 0001136  98.2486 261.8776 13.20769582132914
ONEWEB-0361
1 49287U 21090J   24154.68685838  .00000100  00000+0  21430-3 0  9993
2 49287  87.9220  62.5749 0001838  82.3938 277.7404 13.20770857132025
ONEWEB-0363
1 49289U 21090L   24154.47534768 -.00000045  00000+0 -14270-3 0  9991
2 49289  87.9221  62.6122 0001623  80.9221 279.2096 13.20768412132001
ONEWEB-0367
1 49293U 21090Q   24155.23137164  .00000148  00000+0  33217-3 0  9994
2 49293  87.9221  62.4562 0002001  86.9214 273.2148 13.20770397132929
ONEWEB-0372
1 49298U 21090V   24155.22965242  .00000173  00000+0  39399-3 0  9999
2 49298  87.9222  62.4692 0002131  81.5598 278.5777 13.20774033132937
ONEWEB-0374
1 49300U 21090X   24154.53456022  .00000144  00000+0  35433-3 0  9990
2 49300  87.8967  77.8593 0001993  83.6476 276.4881 13.14502674129739
ONEWEB-0377
1 49303U 21090AA  24154.69962850  .00000079  00000+0  16178-3 0  9993
2 49303  87.9222  62.5586 0001948  71.5907 288.5438 13.20773263132248
ONEWEB-0381
1 49307U 21090AE  24155.22663846  .00000099  00000+0  21219-3 0  9994
2 49307  87.9223  62.4604 0001867  77.2844 282.8497 13.20772140132926
ONEWEB-0382
1 49308U 21090AF  24155.21400636  .00000049  00000+0  89507-4 0  9990
2 49308  87.9222  62.4600 0001509  87.9968 272.1338 13.20772705132923
ONEWEB-0384
1 49310U 21090AH  24155.43810760  .00000028  00000+0  36718-4 0  9993
2 49310  87.9224  62.4265 0001450  90.7114 269.4185 13.20773814132960
ONEWEB-0386
1 49312U 21090AK  24155.22348086  .00000128  00000+0  28333-3 0  9993
2 49312  87.9217  62.4664 0001702  86.4582 273.6746 13.20768905132929
ONEWEB-0531
1 54146U 22138AK  24155.22506320  .00000097  00000+0  20572-3 0  9997
2 54146  87.9225  62.4558 0002161  47.9979 312.1338 13.20771174 81979
ONEWEB-0536
1 54148U 22138AM  24155.43970931  .00000103  00000+0  22254-3 0  9992
2 54148  87.9221  62.4622 0001453  44.1609 315.9640 13.20767869 81996
ONEWEB-0534
1 55797U 23029B   24155.44917063  .00000114  00000+0  24820-3 0  9994
2 55797  87.9223  62.4610 0001957  85.7062 274.4295 13.20770481 63662
ONEWEB-0556
1 55798U 23029C   24154.69790871  .00000017  00000+0  93586-5 0  9996
2 55798  87.9223  62.6039 0001569 107.9334 252.1970 13.20769481 62871
ONEWEB-0562
1 55799U 23029D   24155.21557404  .00000070  00000+0  14074-3 0  9991
2 55799  87.9226  62.4914 0000940  99.0417 261.0823 13.20769253 63627
